PRAETORIAN SDA_609      
1 65572U 25203H   26169.30974336  .00000143  00000+0  11777-3 0  9999
2 65572  81.3050   9.7503 0006833 181.3784 178.7355 13.84208146 38857
PRAETORIAN SDA_610      
1 65573U 25203J   26169.06797639  .00000038  00000+0  23778-4 0  9990
2 65573  81.3007   9.9498 0006473 186.0221 174.0859 13.83851939 38810
PRAETORIAN SDA_611      
1 65574U 25203K   26169.50308176  .00000280  00000+0  24398-3 0  9991
2 65574  81.3007   9.7130 0005375 190.5984 169.5060 13.83309012 38866
PRAETORIAN SDA_612      
1 65575U 25203L   26169.05761789  .00000132  00000+0  10611-3 0  9994
2 65575  81.3033   9.7100 0009027 183.4700 176.6396 13.85037197 38830
PRAETORIAN SDA_613      
1 65576U 25203M   26169.51034505  .00000043  00000+0  28710-4 0  9996
2 65576  81.2998   9.7050 0005634 180.0484 180.0673 13.82765156 38866
PRAETORIAN SDA_614      
1 65577U 25203N   26168.97470263  .00000016  00000+0  33012-5 0  9993
2 65577  81.3014   9.8650 0007037 181.5884 178.5252 13.84777941 38821
PRAETORIAN SDA_615      
1 65578U 25203P   26169.60222362  .00000177  00000+0  14740-3 0  9993
2 65578  81.3021   9.2476 0009038 181.2942 178.8193 13.84436471 38901
PRAETORIAN SDA_616      
1 65579U 25203Q   26169.35767148  .00000160  00000+0  13541-3 0  9992
2 65579  81.3063   9.9933 0005276 188.0517 172.0556 13.83267388 38846
PRAETORIAN SDA_617      
1 65580U 25203R   26169.52405084  .00000030  00000+0  16859-4 0  9993
2 65580  81.3036   9.6715 0007339 180.3244 179.7908 13.83150137 38878
PRAETORIAN SDA_618      
1 65581U 25203S   26169.27900092  .00000166  00000+0  13735-3 0  9994
2 65581  81.3018   9.4764 0009674 184.9968 175.1094 13.84670108 38869
PRAETORIAN SDA_619      
1 65582U 25203T   26169.60484491  .00000157  00000+0  13148-3 0  9990
2 65582  81.3041   9.4734 0008216 181.5911 178.5221 13.83805897 39522
PRAETORIAN SDA_620      
1 65583U 25203U   26169.48839897  .00000112  00000+0  90868-4 0  9997
2 65583  81.3028   9.6028 0007713 177.3783 182.7415 13.83618401 38879
PRAETORIAN SDA_621      
1 65584U 25203V   26169.60662205  .00000050  00000+0  34647-4 0  9993
2 65584  81.3020   9.4106 0007430 174.7447 185.3789 13.83801426 38897
PRAETORIAN SDA_601      
1 65585U 25203W   26169.50556551  .00000413  00000+0  36625-3 0  9999
2 65585  81.3036   9.8017 0005323 191.5599 168.5435 13.83167657 38863
NUSANTARA LIMA (NUSANT*)
1 65588U 25205A   26168.86667954 -.00000363  00000+0  00000+0 0  9991
2 65588   0.0181 103.4558 0000109  70.6404 156.8713  1.00270924  2728
COSMOS 2595 (MOZHAETS 6)
1 65589U 25206A   26167.26921965 -.00000055  00000+0  00000+0 0  9999
2 65589  64.6391 314.8631 0065667 305.1423  54.2276  2.14901179  5935
COSMOS 2596 [GLONASS-K1]
1 65590U 25206B   26169.43366895 -.00000057  00000+0  00000+0 0  9999
2 65590  64.6338 314.9413 0010997 311.7055  76.8578  2.13100598  5948
STARLINK-35267          
1 65592U 25207A   26169.14955848  .00004321  00000+0  30315-3 0  9995
2 65592  97.3448 236.6094 0001960 112.6423 247.5012 15.05665149 43368
STARLINK-35269          
1 65593U 25207B   26169.44862876  .00002549  00000+0  18055-3 0  9994
2 65593  97.3445 236.9741 0001636 113.1315 247.0085 15.05657395 43419
STARLINK-35191          
1 65594U 25207C   26169.19940685  .00003109  00000+0  21930-3 0  9991
2 65594  97.3443 236.6957 0001276 119.0341 241.1015 15.05662773 43210
STARLINK-35261          
1 65595U 25207D   26169.63139045  .00001645  00000+0  11793-3 0  9990
2 65595  97.3430 237.1852 0001548 132.4789 227.6569 15.05658813 43453
STARLINK-35253          
1 65596U 25207E   26169.47354519  .00006398  00000+0  44689-3 0  9998
2 65596  97.3444 236.9370 0002252 135.6623 224.4785 15.05659775 43213
STARLINK-35263          
1 65597U 25207F   26169.45693122  .00002778  00000+0  19640-3 0  9990
2 65597  97.3449 236.9602 0001879 118.2089 241.9328 15.05657005 43428
STARLINK-35248          
1 65598U 25207G   26169.44032529  .00005232  00000+0  36602-3 0  9993
2 65598  97.3436 236.9844 0002009 130.5658 229.5744 15.05678037 43420
STARLINK-35245          
1 65599U 25207H   26169.49016677  .00002137  00000+0  15201-3 0  9998
2 65599  97.3427 237.0700 0002127 130.3697 229.7717 15.05654896 43436
STARLINK-35229          
1 65600U 25207J   26169.61199642  .00004597  00000+0  32227-3 0  9998
2 65600  97.3446 237.0562 0001812 138.6500 221.4865 15.05662839 43440
STARLINK-35234          
1 65601U 25207K   26169.47077399  .00001866  00000+0  13323-3 0  9999
2 65601  97.3446 236.9425 0000474  95.0045 265.1237 15.05659369 43420
STARLINK-35255          
1 65602U 25207L   26169.45416059 -.00002171  00000+0 -14653-3 0  9997
2 65602  97.3458 236.9669 0000868 134.9370 225.1928 15.05658762 43424
STARLINK-35250          
1 65603U 25207M   26169.43755425  .00001963  00000+0  13996-3 0  9994
2 65603  97.3439 236.9876 0002347 120.3671 239.7788 15.05659081 43421
STARLINK-35251          
1 65604U 25207N   26169.45969960  .00003602  00000+0  25344-3 0  9990
2 65604  97.3449 236.9568 0000426 102.0807 258.0468 15.05660189 43425
